STARLINK-34517          
1 64595U 25137B   25324.70027884  .00035089  00000+0  88264-3 0  9994
2 64595  53.1575 124.6436 0001795  85.8664 274.2546 15.39637735 24007
STARLINK-34510          
1 64596U 25137C   25324.45919130  .00046289  00000+0  11590-2 0  9992
2 64596  53.1567 125.9842 0001283 319.7255  40.3655 15.39651024 23965
STARLINK-34486          
1 64597U 25137D   25324.16702804  .00042037  00000+0  10542-2 0  9992
2 64597  53.1558 127.0027 0001549  78.6353 281.4826 15.39644679 23921
STARLINK-34463          
1 64598U 25137E   25324.48231318  .00044952  00000+0  11262-2 0  9993
2 64598  53.1500 125.4144 0001644  96.6355 263.4837 15.39645284 23979
STARLINK-34294          
1 64599U 25137F   25324.19024056  .00056489  00000+0  14119-2 0  9993
2 64599  53.1570 127.1470 0001722  87.4931 272.6271 15.39615919 23924
STARLINK-34504          
1 64600U 25137G   25323.75441582  .00037313  00000+0  93752-3 0  9990
2 64600  53.1580 129.4061 0001294  84.8139 275.3013 15.39643456 23857
STARLINK-34508          
1 64601U 25137H   25323.87030321  .00049367  00000+0  12333-2 0  9996
2 64601  53.1541 128.7066 0002022  82.9497 277.1738 15.39691288 23870
STARLINK-34435          
1 64602U 25137J   25323.20259559  .00055462  00000+0  13859-2 0  9997
2 64602  53.1580 131.6487 0001443  88.2503 271.8667 15.39632827 23772
STARLINK-34475          
1 64603U 25137K   25324.17167517  .00058846  00000+0  14691-2 0  9991
2 64603  53.1538 127.0298 0001818  74.6636 285.4570 15.39634232 23920
STARLINK-34488          
1 64604U 25137L   25323.94451789  .00056600  00000+0  14121-2 0  9997
2 64604  53.1584 128.4597 0000046  67.3056 292.7954 15.39671401 23887
STARLINK-34516          
1 64605U 25137M   25324.18561604  .00046751  00000+0  11704-2 0  9993
2 64605  53.1584 127.1164 0001374  94.0604 266.0558 15.39650012 24021
STARLINK-34073          
1 64606U 25137N   25324.16238681  .00040601  00000+0  10192-2 0  9996
2 64606  53.1566 126.9719 0001677  76.6863 283.4329 15.39631350 23802
STARLINK-34532          
1 64607U 25137P   25324.49517139  .00034265  00000+0  11629-2 0  9996
2 64607  53.1557 132.5875 0001558 306.2342  53.8515 15.30221107 23870
STARLINK-34519          
1 64608U 25137Q   25323.88459621  .00066235  00000+0  16485-2 0  9997
2 64608  53.1568 128.7953 0000508  92.9714 267.1349 15.39674773 23878
STARLINK-34513          
1 64609U 25137R   25323.87994605  .00038611  00000+0  96895-3 0  9994
2 64609  53.1567 128.7624 0002185  77.5392 282.5857 15.39664047 23976
STARLINK-34569          
1 64610U 25137S   25324.45952509  .00028008  00000+0  70706-3 0  9990
2 64610  53.1491 125.9806 0002108  86.2063 273.9183 15.39643388 23962
STARLINK-34494          
1 64611U 25137T   25324.19521654  .00048434  00000+0  12114-2 0  9998
2 64611  53.1612 127.1783 0000964 304.5811  55.5103 15.39664650 23928
STARLINK-34521          
1 64612U 25137U   25324.18593963  .00047183  00000+0  11818-2 0  9990
2 64612  53.1575 127.1179 0001756  81.0325 279.0878 15.39630877 23929
STARLINK-34500          
1 64613U 25137V   25323.20294037  .00024028  00000+0  60921-3 0  9996
2 64613  53.1571 131.6478 0002140  81.2033 278.9214 15.39597628 23876
STARLINK-34440          
1 64614U 25137W   25324.17200979  .00050255  00000+0  12579-2 0  9992
2 64614  53.1561 127.0308 0001737  75.8051 284.3147 15.39624833 23928
STARLINK-34469          
1 64615U 25137X   25324.19060005  .00056193  00000+0  14051-2 0  9993
2 64615  53.1578 127.1474 0001620  89.6661 270.4529 15.39605279 23926
STARLINK-34413          
1 64616U 25137Y   25324.18128637  .00048502  00000+0  12144-2 0  9995
2 64616  53.1562 127.0878 0000318  89.0113 271.0928 15.39631716 24023
STARLINK-34417          
1 64617U 25137Z   25323.16289463  .00041700  00000+0  10465-2 0  9995
2 64617  53.1598 119.8138 0000742  87.8431 272.2659 15.39629322 24036
STARLINK-34415          
1 64618U 25137AA  25324.16736877  .00049307  00000+0  12322-2 0  9998
2 64618  53.1563 127.0008 0002487  76.4568 283.6714 15.39679962 23929
STARLINK-34416          
1 64619U 25137AB  25324.48729034  .00041926  00000+0  10517-2 0  9994
2 64619  53.1557 125.4417 0001015  83.2177 276.8943 15.39638452 23979
STARLINK-34414          
1 64620U 25137AC  25324.40844385  .00058536  00000+0  14600-2 0  9997
2 64620  53.1581 125.6591 0000869 322.3951  37.6993 15.39664704 23962
STARLINK-34464          
1 64664U 25139A   25324.69106687  .00034696  00000+0  11773-2 0  9993
2 64664  53.1588 273.4928 0002021  72.9914 287.1308 15.30221513 23591
STARLINK-34555          
1 64665U 25139B   25324.55726795  .00022781  00000+0  77869-3 0  9998
2 64665  53.1586 274.0790 0001219  75.1446 284.9690 15.30209666 23478
STARLINK-34390          
1 64666U 25139C   25324.58987044  .00018115  00000+0  62214-3 0  9992
2 64666  53.1612 273.5729 0001415  94.6476 265.4687 15.30204903 23640
STARLINK-34382          
1 64667U 25139D   25324.18121211  .00025139  00000+0  85790-3 0  9993
2 64667  53.1597 276.0011 0001221  91.9628 268.1513 15.30204337 23514
STARLINK-34395          
1 64668U 25139E   25324.56359760  .00021059  00000+0  72085-3 0  9998
2 64668  53.1584 274.1206 0001262  92.7923 267.3222 15.30212589 23570
STARLINK-34394          
1 64669U 25139F   25324.16221686  .00035556  00000+0  12070-2 0  9994
2 64669  53.1591 275.8805 0000981  92.5322 267.5791 15.30195281 23516
STARLINK-34287          
1 64670U 25139G   25324.15588145  .00022625  00000+0  77388-3 0  9998
2 64670  53.1597 275.8415 0001280  89.9102 270.2046 15.30192375 23515
STARLINK-34365          
1 64671U 25139H   25324.56993285  .00020985  00000+0  71843-3 0  9996
2 64671  53.1599 274.1584 0001393  88.2517 271.8643 15.30209603 23630
STARLINK-34442          
1 64672U 25139J   25324.59936811  .00021478  00000+0  73503-3 0  9995
2 64672  53.1609 273.6312 0001677  87.6483 272.4710 15.30207294 23586
STARLINK-34288          
1 64673U 25139K   25324.14849616  .00023786  00000+0  81276-3 0  9993
2 64673  53.1598 275.7947 0001217  86.6163 273.4977 15.30195061 23512
STARLINK-34539          
1 64674U 25139L   25324.59620021  .00022365  00000+0  76459-3 0  9999
2 64674  53.1605 273.6095 0001179 100.9216 259.1918 15.30216257 23482
STARLINK-34590          
1 64675U 25139M   25324.18860022  .00025812  00000+0  88083-3 0  9998
2 64675  53.1607 276.0429 0001272 101.3757 258.7386 15.30191378 23516
STARLINK-34573          
1 64676U 25139N   25324.39075965  .00046302  00000+0  15651-2 0  9993
2 64676  53.1605 274.4598 0001059  88.3700 271.7422 15.30211986 23557
STARLINK-34605          
1 64677U 25139P   25324.47604469  .00039359  00000+0  98811-3 0  9994
2 64677  53.1600 268.6158 0001211 102.0152 258.0989 15.39643701 23644
STARLINK-34525          
1 64678U 25139Q   25324.57520894  .00022391  00000+0  76565-3 0  9995
2 64678  53.1604 274.1883 0001369  83.5127 276.6029 15.30208256 23571
STARLINK-34489          
1 64679U 25139R   25324.56889440  .00041463  00000+0  14028-2 0  9996
2 64679  53.1607 274.1487 0002215 101.8466 258.2783 15.30233750 23576
STARLINK-34502          
1 64680U 25139S   25324.59197965  .00023918  00000+0  81696-3 0  9996
2 64680  53.1598 273.5794 0001075  90.1356 269.9768 15.30203719 23587
STARLINK-34553          
1 64681U 25139T   25324.58564796  .00022703  00000+0  77606-3 0  9993
2 64681  53.1614 273.5413 0001497  91.4313 268.6859 15.30210714 23580
STARLINK-34551          
1 64682U 25139U   25324.54517289  .00065699  00000+0  16368-2 0  9993
2 64682  53.1598 267.6166 0001615  93.9773 266.1416 15.39647629 23669
STARLINK-34550          
1 64683U 25139V   25324.15377015  .00014169  00000+0  48955-3 0  9996
2 64683  53.1596 275.8224 0001411  95.2250 264.8911 15.30202885 23514
STARLINK-34485          
1 64684U 25139W   25324.17065639  .00024067  00000+0  82190-3 0  9992
2 64684  53.1594 275.9252 0001269  89.8309 270.2838 15.30206223 23519
STARLINK-34253          
1 64685U 25139X   25324.69001020  .00030738  00000+0  10451-2 0  9996
2 64685  53.1589 273.4762 0001945  72.2006 287.9207 15.30215617 23594
STARLINK-34565          
1 64686U 25139Y   25324.16432279  .00011278  00000+0  39226-3 0  9993
2 64686  53.1594 275.8863 0001102  91.6293 268.4834 15.30205297 23512
STARLINK-34554          
1 64687U 25139Z   25324.59831182  .00028562  00000+0  97224-3 0  9993
2 64687  53.1610 273.6197 0001323  91.3176 268.7977 15.30217429 23588
STARLINK-34262          
1 64688U 25139AA  25324.15060550  .00039014  00000+0  13223-2 0  9999
2 64688  53.1606 275.7994 0001428  85.6514 274.4650 15.30204467 23579
STARLINK-34538          
1 64689U 25139AB  25324.15799112  .00017459  00000+0  60025-3 0  9995
2 64689  53.1598 275.8458 0001250  94.1534 265.9610 15.30197941 23519
STARLINK-34250          
1 64690U 25139AC  25324.09585087  .00038674  00000+0  13138-2 0  9998
2 64690  53.1595 276.1694 0001383  80.0957 280.0200 15.30134221 23508
STARLINK-34497          
1 64696U 25142A   25324.14872533  .00000309  00000+0  33695-4 0  9995
2 64696  70.0034 230.6056 0002359 262.5600  97.5291 14.98315346 23236
STARLINK-34584          
1 64697U 25142B   25324.26538259  .00003965  00000+0  33986-3 0  9996
2 64697  70.0025 230.2032 0002857 270.1644  89.9187 14.98338450 23097
STARLINK-34535          
1 64698U 25142C   25324.15214555  .00015477  00000+0  13843-2 0  9995
2 64698  70.0034 230.1987 0002162 264.0960  95.9952 14.95942840 23074
STARLINK-34600          
1 64699U 25142D   25324.15668611  .00008045  00000+0  72480-3 0  9998
2 64699  70.0018 229.8163 0002265 269.2220  90.8679 14.95910377 23090
STARLINK-34560          
1 64700U 25142E   25324.14500709  .00021800  00000+0  19449-2 0  9992
2 64700  70.0039 229.7771 0002957 264.5685  95.5136 14.95938865 23059
STARLINK-34576          
1 64701U 25142F   25324.20221383  .00002100  00000+0  19532-3 0  9994
2 64701  70.0035 229.5700 0002369 274.0971  85.9916 14.95911456 23097
